BEIDOU-2 IGSO-1 (C06)   
1 36828U 10036A   26141.01113590 -.00000079  00000+0  00000+0 0  9996
2 36828  54.2967 163.2045 0058932 224.9850 321.8842  1.00280030 57824
BEIDOU-2 G4 (C04)       
1 37210U 10057A   26143.90410177 -.00000118  00000+0  00000+0 0  9990
2 37210   3.5892  69.0874 0005598 207.8840  90.0025  1.00271668 57045
BEIDOU-2 IGSO-2 (C07)   
1 37256U 10068A   26141.72681503 -.00000225  00000+0  00000+0 0  9992
2 37256  47.5987 272.1591 0054473 211.8397 123.6506  1.00291558 56528
BEIDOU-2 IGSO-3 (C08)   
1 37384U 11013A   26139.76799347 -.00000201  00000+0  00000+0 0  9996
2 37384  62.3699  40.4207 0033807 185.8234  35.8952  1.00273682 55372
BEIDOU-2 IGSO-4 (C09)   
1 37763U 11038A   26143.53456341  .00000028  00000+0  00000+0 0  9994
2 37763  54.5936 165.8914 0158425 231.3699 128.5155  1.00289369 54400
BEIDOU-2 IGSO-5 (C10)   
1 37948U 11073A   26143.84191813 -.00000222  00000+0  00000+0 0  9999
2 37948  47.7236 271.8447 0112185 220.7496 143.8523  1.00254552 52897
BEIDOU-2 G5 (C05)       
1 38091U 12008A   26144.16953346  .00000052  00000+0  00000+0 0  9991
2 38091   3.5165  69.8393 0010813 271.0178  20.6559  1.00274346 52124
BEIDOU-2 M3 (C11)       
1 38250U 12018A   26141.34078759 -.00000061  00000+0  00000+0 0  9993
2 38250  55.7819 305.7795 0019760 275.7935  83.9605  1.86229586 95442
BEIDOU-2 M4 (C12)       
1 38251U 12018B   26143.95784656 -.00000077  00000+0  00000+0 0  9990
2 38251  55.6795 304.9070 0010978 279.4722  80.3841  1.86229215 95496
BEIDOU-2 M6 (C14)       
1 38775U 12050B   26144.20461034 -.00000067  00000+0  00000+0 0  9997
2 38775  56.5243  63.6871 0014180 353.4457   6.5303  1.86230909 92863
BEIDOU-2 G6 (C02)       
1 38953U 12059A   26143.88910855 -.00000180  00000+0  00000+0 0  9993
2 38953   4.3627  73.7776 0010274 321.5355 250.2904  1.00269651 49664
BEIDOU-3S IGSO-1S (C31) 
1 40549U 15019A   26143.89118837 -.00000186  00000+0  00000+0 0  9993
2 40549  49.2421 295.7508 0038001 189.8512 170.0866  1.00254987 40837
BEIDOU-3S M2S (C58)     
1 40748U 15037A   26143.62365685 -.00000076  00000+0  00000+0 0  9998
2 40748  54.8929 302.8909 0007595 263.8817  96.0113  1.86231735 73662
BEIDOU-3S M1S (C57)     
1 40749U 15037B   26142.76028010 -.00000069  00000+0  00000+0 0  9993
2 40749  54.8907 302.9089 0003960  57.9308 302.0873  1.86254800 73658
BEIDOU-3S IGSO-2S (C56) 
1 40938U 15053A   26143.79677855 -.00000174  00000+0  00000+0 0  9999
2 40938  49.2596 259.0714 0064721 191.2092 174.1889  1.00265278 39116
BEIDOU-2 IGSO-6 (C13)   
1 41434U 16021A   26143.68914317 -.00000176  00000+0  00000+0 0  9994
2 41434  60.1930  38.2820 0057433 232.3285 312.9400  1.00263818 37230
BEIDOU-2 G7 (C03)       
1 41586U 16037A   26144.03713131 -.00000359  00000+0  00000+0 0  9993
2 41586   1.6626  69.1731 0007037 356.0949 300.1999  1.00277136  6641
BEIDOU-3 M1 (C19)       
1 43001U 17069A   26143.96999846 -.00000064  00000+0  00000+0 0  9996
2 43001  56.6723  63.8816 0011367 323.2032  36.7137  1.86231088 58157
BEIDOU-3 M2 (C20)       
1 43002U 17069B   26143.90867839 -.00000063  00000+0  00000+0 0  9996
2 43002  56.6715  63.9201 0009782 345.3849  14.5817  1.86230568 58147
BEIDOU-3 M7 (C27)       
1 43107U 18003A   26142.57643510 -.00000070  00000+0  00000+0 0  9999
2 43107  54.3520 303.2076 0005200  87.6780 272.3613  1.86227846 56874
BEIDOU-3 M8 (C28)       
1 43108U 18003B   26143.59550954 -.00000077  00000+0  00000+0 0  9999
2 43108  54.3440 303.1537 0002126 272.4030  87.5525  1.86230755 56908
BEIDOU-3 M4 (C22)       
1 43207U 18018A   26141.89045832 -.00000046  00000+0  00000+0 0  9996
2 43207  56.6297  64.0152 0007945  10.5358 349.4779  1.86230864 56257
BEIDOU-3 M3 (C21)       
1 43208U 18018B   26141.95691881 -.00000047  00000+0  00000+0 0  9996
2 43208  56.6291  64.0170 0009533 335.7893  24.1631  1.86230744 56254
BEIDOU-3 M9 (C29)       
1 43245U 18029A   26141.63764698 -.00000063  00000+0  00000+0 0  9999
2 43245  54.2185 300.8761 0000913 118.0977 241.8893  1.86227817 55407
BEIDOU-3 M10 (C30)      
1 43246U 18029B   26143.71997419 -.00000078  00000+0  00000+0 0  9996
2 43246  54.2151 300.8304 0004398  39.4745 320.5360  1.86228937 55424
BEIDOU-2 IGSO-7 (C16)   
1 43539U 18057A   26143.96615068 -.00000024  00000+0  00000+0 0  9997
2 43539  55.1899 163.2683 0104218 237.9587 299.7499  1.00258077 28884
BEIDOU-3 M5 (C23)       
1 43581U 18062A   26142.87022351  .00000036  00000+0  00000+0 0  9998
2 43581  54.0834 183.1647 0005251 288.7531  71.2544  1.86228619 53165
BEIDOU-3 M6 (C24)       
1 43582U 18062B   26143.27053163  .00000039  00000+0  00000+0 0  9992
2 43582  54.0835 183.1400 0004865  12.6916 347.3853  1.86227541 53179
BEIDOU-3 M12 (C26)      
1 43602U 18067A   26144.28284341  .00000054  00000+0  00000+0 0  9993
2 43602  54.1791 181.8510 0007779  30.2121 329.8983  1.86227821 52676
BEIDOU-3 M11 (C25)      
1 43603U 18067B   26142.80695775  .00000038  00000+0  00000+0 0  9999
2 43603  54.1759 181.8646 0004460  15.0351 345.0417  1.86227142 52679
BEIDOU-3 M13 (C32)      
1 43622U 18072A   26143.29890610 -.00000059  00000+0  00000+0 0  9999
2 43622  56.6042  63.4807 0008142 324.7843  35.1586  1.86231081 52191
BEIDOU-3 M14 (C33)      
1 43623U 18072B   26142.62739226 -.00000053  00000+0  00000+0 0  9995
2 43623  56.6051  63.4972 0006624 351.7889   8.1977  1.86231107 52179
BEIDOU-3 M16 (C35)      
1 43647U 18078A   26143.85699329 -.00000079  00000+0  00000+0 0  9990
2 43647  54.1131 300.8385 0007691  40.3728 319.6626  1.86232300 51706
BEIDOU-3 M15 (C34)      
1 43648U 18078B   26141.83850941 -.00000064  00000+0  00000+0 0  9990
2 43648  54.1113 300.9095 0004908  54.9671 305.0570  1.86232087 51688
BEIDOU-3 G1 (C59)       
1 43683U 18085A   26144.23849758 -.00000113  00000+0  00000+0 0  9993
2 43683   2.8098  98.0203 0007934 342.2041  47.4432  1.00271371 27829
BEIDOU-3 M17 (C36)      
1 43706U 18093A   26144.20755414  .00000050  00000+0  00000+0 0  9999
2 43706  54.1673 183.1096 0009838 291.2944 109.0036  1.86228425 51097
BEIDOU-3 M18 (C37)      
1 43707U 18093B   26144.01057468  .00000048  00000+0  00000+0 0  9990
2 43707  54.1681 183.1084 0007651 321.0524  38.9582  1.86226388 51082
BEIDOU-3 IGSO-1 (C38)   
1 44204U 19023A   26132.76772565 -.00000227  00000+0  00000+0 0  9998
2 44204  58.6468  38.0171 0023856 234.3090 349.8662  1.00250503  6851
BEIDOU-2 G8 (C01)       
1 44231U 19027A   26144.18652022 -.00000252  00000+0  00000+0 0  9994
2 44231   1.5997  74.4669 0010619 281.1402  97.8333  1.00269322 25845
BEIDOU-3 IGSO-2 (C39)   
1 44337U 19035A   26139.63539042 -.00000079  00000+0  00000+0 0  9997
2 44337  55.2397 159.1126 0039530 216.4700 210.4277  1.00275192 25387
BEIDOU-3 M24 (C46)      
1 44542U 19061A   26144.07952799  .00000048  00000+0  00000+0 0  9991
2 44542  54.3948 183.5409 0008197   0.7769 359.2907  1.86229030 45340
BEIDOU-3 M23 (C45)      
1 44543U 19061B   26144.21658418  .00000050  00000+0  00000+0 0  9992
2 44543  54.3933 183.5044 0005452 340.7921  22.9111  1.86227213 45351
BEIDOU-3 IGSO-3 (C40)   
1 44709U 19073A   26120.85038409 -.00000212  00000+0  00000+0 0  9996
2 44709  54.8842 281.4069 0042404 188.8195 170.9972  1.00251230 23982
BEIDOU-3 M22 (C44)      
1 44793U 19078A   26143.91898873 -.00000080  00000+0  00000+0 0  9998
2 44793  53.9597 300.6810 0006987  49.6307 310.4086  1.86227012 44193
BEIDOU-3 M21 (C43)      
1 44794U 19078B   26143.52201132 -.00000077  00000+0  00000+0 0  9998
2 44794  53.9321 300.6562 0004800  48.5460 311.4738  1.86227493 44191
BEIDOU-3 M19 (C41)      
1 44864U 19090A   26142.41824409 -.00000051  00000+0  00000+0 0  9997
2 44864  56.5381  63.6419 0018941 297.3914 239.7429  1.86231321 43755
BEIDOU-3 M20 (C42)      
1 44865U 19090B   26142.28522840 -.00000050  00000+0  00000+0 0  9996
2 44865  56.5392  63.6807 0016663 310.6149 226.9339  1.86231109 43737
BEIDOU-3 G2 (C60)       
1 45344U 20017A   26144.17369350 -.00000145  00000+0  00000+0 0  9990
2 45344   2.8182  46.9900 0002399  10.7645 326.5908  1.00270986 23019
BEIDOU-3 G3 (C61)       
1 45807U 20040A   26144.03713131 -.00000358  00000+0  00000+0 0  9991
2 45807   2.3904  67.3898 0003095 334.2652 323.8873  1.00268997 21826
BEIDOU-3 G4 (C62)       
1 56564U 23066A   26144.18556689 -.00000287  00000+0  00000+0 0  9994
2 56564   0.5160 325.8005 0003760 170.1457 312.7142  1.00272467 11151
BEIDOU-3 M28 (C50)      
1 58654U 23207A   26141.98828476 -.00000050  00000+0  00000+0 0  9992
2 58654  55.7307  63.1868 0003978 335.0325  24.9461  1.86229664 16352
BEIDOU-3 M26 (C48)      
1 58655U 23207B   26143.93360837 -.00000066  00000+0  00000+0 0  9999
2 58655  55.7344  63.1076 0004050 313.4974  46.4644  1.86229709 16371
BEIDOU-3 M25 (C47)      
1 61186U 24168B   26143.76045272 -.00000078  00000+0  00000+0 0  9996
2 61186  54.4958 303.0900 0002982 311.8334  49.3076  1.86230046 11335
BEIDOU-3 M27 (C49)      
1 61187U 24168C   26144.09289086 -.00000080  00000+0  00000+0 0  9990
2 61187  54.4907 303.0615 0002128  47.6295 311.4151  1.86230149  8804
